NORAD_CAT_ID,OBJECT_NAME,OBJECT_TYPE,EPOCH,MEAN_MOTION,ECCENTRICITY,INCLINATION,RA_OF_ASC_NODE,ARG_OF_PERICENTER,MEAN_ANOMALY,BSTAR,MEAN_MOTION_DOT,MEAN_MOTION_DDOT,TLE_LINE0,TLE_LINE1,TLE_LINE2,SEMIMAJOR_AXIS,PERIOD,APOGEE,PERIGEE,DECAYED
50158.0,STARLINK-3309,PAYLOAD,2022-07-31 05:59:02,15.08832433,0.0002018,53.2171,53.3531,61.7907,298.3289,1.2152e-05,-9.5e-07,0.0,0 STARLINK-3309,1 50158U 21125C   22212.24933792 -.00000095  00000-0  12152-4 0  9998,2 50158  53.2171  53.3531 0002018  61.7907 298.3289 15.08832433 37638,6917.904,95.438,541.165,538.372,0.0
50158.0,STARLINK-3309,PAYLOAD,2022-07-31 20:17:30,15.08837336,0.0001966,53.217,50.6768,62.0294,298.0897,1.0382e-05,-1.23e-06,0.0,0 STARLINK-3309,1 50158U 21125C   22212.84549640 -.00000123  00000-0  10382-4 0  9994,2 50158  53.2170  50.6768 0001966  62.0294 298.0897 15.08837336 34572,6917.889,95.438,541.114,538.393,0.0
50158.0,STARLINK-3309,PAYLOAD,2022-08-01 12:11:22,15.08835748,0.0001971,53.2173,47.7028,61.6774,298.4417,0.00011994,1.621e-05,0.0,0 STARLINK-3309,1 50158U 21125C   22213.50789551  .00001621  00000-0  11994-3 0  9997,2 50158  53.2173  47.7028 0001971  61.6774 298.4417 15.08835748 37823,6917.893,95.438,541.122,538.395,0.0
50158.0,STARLINK-3309,PAYLOAD,2022-08-01 20:08:17,15.08840839,0.0001985,53.2173,46.216,62.076,298.0433,0.00011677,1.571e-05,0.0,0 STARLINK-3309,1 50158U 21125C   22213.83909293  .00001571  00000-0  11677-3 0  9992,2 50158  53.2173  46.2160 0001985  62.0760 298.0433 15.08840839 37875,6917.878000000002,95.438,541.116,538.37,0.0
50158.0,STARLINK-3309,PAYLOAD,2022-08-02 07:15:59,15.08841169,0.0002004,53.2171,44.1347,63.2143,296.9053,0.0001004999999999,1.312e-05,0.0,0 STARLINK-3309,1 50158U 21125C   22214.30277318  .00001312  00000-0  10050-3 0  9998,2 50158  53.2171  44.1347 0002004  63.2143 296.9053 15.08841169 37948,6917.877,95.437,541.128,538.355,0.0
50158.0,STARLINK-3309,PAYLOAD,2022-08-02 21:34:29,15.08771323,0.000241,53.2169,41.4583,64.6044,295.5197,0.00083136,0.00012943,0.0,0 STARLINK-3309,1 50158U 21125C   22214.89895481  .00012943  00000-0  83136-3 0  9996,2 50158  53.2169  41.4583 0002410  64.6044 295.5197 15.08771323 34881,6918.09,95.442,541.623,538.288,0.0
50158.0,STARLINK-3309,PAYLOAD,2022-08-03 07:06:47,15.0883917,0.0002023,53.2169,39.674,64.94800000000001,295.1722,2.1569e-05,5.5e-07,0.0,0 STARLINK-3309,1 50158U 21125C   22215.29637921  .00000055  00000-0  21569-4 0  9998,2 50158  53.2169  39.6740 0002023  64.9480 295.1722 15.08839170 34944,6917.8830000000025,95.438,541.1469999999998,538.3480000000002,0.0
50158.0,STARLINK-3309,PAYLOAD,2022-08-03 11:52:56,15.08841451,0.0002025,53.2169,38.7817,65.9457,294.1747,1.7437999999999998e-05,-1.1e-07,0.0,0 STARLINK-3309,1 50158U 21125C   22215.49509792 -.00000011  00000-0  17438-4 0  9997,2 50158  53.2169  38.7817 0002025  65.9457 294.1747 15.08841451 38121,6917.876,95.437,541.1419999999998,538.34,0.0
50158.0,STARLINK-3309,PAYLOAD,2022-08-03 15:03:42,15.0884068,0.0002023,53.2169,38.1869,66.1397,293.9807,1.1051e-05,-1.12e-06,0.0,0 STARLINK-3309,1 50158U 21125C   22215.62757854 -.00000112  00000-0  11051-4 0  9993,2 50158  53.2169  38.1869 0002023  66.1397 293.9807 15.08840680 38145,6917.878000000002,95.438,541.143,538.344,0.0
50158.0,STARLINK-3309,PAYLOAD,2022-08-04 11:43:43,15.08840509,0.0001908,53.2173,34.3212,65.0244,295.0947,0.00012562,1.712e-05,0.0,0 STARLINK-3309,1 50158U 21125C   22216.48869299  .00001712  00000-0  12562-3 0  9998,2 50158  53.2173  34.3212 0001908  65.0244 295.0947 15.08840509 35123,6917.879,95.438,541.064,538.424,0.0
50158.0,STARLINK-3309,PAYLOAD,2022-08-04 14:54:29,15.08842214,0.0001919,53.2173,33.7264,65.3156,294.8035,0.00013585,1.875e-05,0.0,0 STARLINK-3309,1 50158U 21125C   22216.62117176  .00001875  00000-0  13585-3 0  9990,2 50158  53.2173  33.7264 0001919  65.3156 294.8035 15.08842214 38291,6917.874,95.437,541.066,538.411,0.0
50158.0,STARLINK-3309,PAYLOAD,2022-08-05 08:23:44,15.08838005,0.000186,53.2174,30.4555,65.852,294.2667,4.5343e-05,4.34e-06,0.0,0 STARLINK-3309,1 50158U 21125C   22217.34981703  .00000434  00000-0  45343-4 0  9993,2 50158  53.2174  30.4555 0001860  65.8520 294.2667 15.08838005 35255,6917.886,95.438,541.038,538.465,0.0
50158.0,STARLINK-3309,PAYLOAD,2022-08-05 11:34:30,15.08838755,0.0001839,53.2175,29.8607,65.8179,294.3006,3.6064e-05,2.86e-06,0.0,0 STARLINK-3309,1 50158U 21125C   22217.48229677  .00000286  00000-0  36064-4 0  9998,2 50158  53.2175  29.8607 0001839  65.8179 294.3006 15.08838755 38424,6917.884,95.438,541.021,538.477,0.0
50158.0,STARLINK-3309,PAYLOAD,2022-08-05 14:45:16,15.08839417,0.0001844,53.2175,29.2659,66.1034,294.0152,3.9511e-05,3.41e-06,0.0,0 STARLINK-3309,1 50158U 21125C   22217.61477622  .00000341  00000-0  39511-4 0  9990,2 50158  53.2175  29.2659 0001844  66.1034 294.0152 15.08839417 38442,6917.882,95.438,541.023,538.472,0.0
50158.0,STARLINK-3309,PAYLOAD,2022-08-06 11:25:16,15.08849409,0.000183,53.2175,25.4,66.7112,293.4073,4.4364e-05,4.18e-06,0.0,0 STARLINK-3309,1 50158U 21125C   22218.47588746  .00000418  00000-0  44364-4 0  9992,2 50158  53.2175  25.4000 0001830  66.7112 293.4073 15.08849409 38579,6917.852,95.437,540.9830000000002,538.451,0.0
50158.0,STARLINK-3309,PAYLOAD,2022-08-06 20:57:36,15.08837989,0.0001792,53.2176,23.6162,66.8309,293.2871,-2.6034e-05,-7.02e-06,0.0,0 STARLINK-3309,1 50158U 21125C   22218.87333610 -.00000702  00000-0 -26034-4 0  9996,2 50158  53.2176  23.6162 0001792  66.8309 293.2871 15.08837989 35486,6917.887,95.438,540.991,538.512,0.0
50158.0,STARLINK-3309,PAYLOAD,2022-08-07 11:16:04,15.08839324,0.0001783,53.2177,20.9399,65.8354,294.2824,6.889899999999999e-05,8.09e-06,0.0,0 STARLINK-3309,1 50158U 21125C   22219.46949411  .00000809  00000-0  68899-4 0  9995,2 50158  53.2177  20.9399 0001783  65.8354 294.2824 15.08839324 38722,6917.882,95.438,540.981,538.514,0.0
50158.0,STARLINK-3309,PAYLOAD,2022-08-07 17:37:36,15.08845393,0.0001776,53.2177,19.7503,65.9283,294.1895,0.00013193,1.813e-05,0.0,0 STARLINK-3309,1 50158U 21125C   22219.73445074  .00001813  00000-0  13193-3 0  9993,2 50158  53.2177  19.7503 0001776  65.9283 294.1895 15.08845393 38763,6917.864000000001,95.437,540.9580000000002,538.5,0.0
50158.0,STARLINK-3309,PAYLOAD,2022-08-08 11:06:51,15.08845147,0.0001781999999999,53.2169,16.4794,65.0858,295.032,7.4912e-05,9.04e-06,0.0,0 STARLINK-3309,1 50158U 21125C   22220.46309073  .00000904  00000-0  74912-4 0  9990,2 50158  53.2169  16.4794 0001782  65.0858 295.0320 15.08845147 38878,6917.865,95.437,540.962,538.497,0.0
50158.0,STARLINK-3309,PAYLOAD,2022-08-08 20:39:09,15.08849788,0.0001766999999999,53.2168,14.6953,65.1256,294.9919,0.00013592,1.876e-05,0.0,0 STARLINK-3309,1 50158U 21125C   22220.86052713  .00001876  00000-0  13592-3 0  9995,2 50158  53.2168  14.6953 0001767  65.1256 294.9919 15.08849788 38934,6917.85,95.437,540.938,538.493,0.0
50158.0,STARLINK-3309,PAYLOAD,2022-08-09 12:33:01,15.08840945,0.0001776,53.2166,11.7219,64.8218,295.2958,1.7715e-05,-6e-08,0.0,0 STARLINK-3309,1 50158U 21125C   22221.52292913 -.00000006  00000-0  17715-4 0  9994,2 50158  53.2166  11.7219 0001776  64.8218 295.2958 15.08840945 39034,6917.878000000002,95.437,540.971,538.514,0.0
50158.0,STARLINK-3309,PAYLOAD,2022-08-09 17:19:10,15.08841261,0.0001774,53.2166,10.8298,64.9609,295.1567,1.4956e-05,-5e-07,0.0,0 STARLINK-3309,1 50158U 21125C   22221.72164853 -.00000050  00000-0  14956-4 0  9990,2 50158  53.2166  10.8298 0001774  64.9609 295.1567 15.08841261 39064,6917.877,95.437,540.969,538.514,0.0
50158.0,STARLINK-3309,PAYLOAD,2022-08-10 10:48:26,15.08820187,0.0001636,53.2178,7.5589,62.0567,298.0591,-8.561799999999999e-05,-1.65e-05,0.0,0 STARLINK-3309,1 50158U 21125C   22222.45031103 -.00001650  00000-0 -85618-4 0  9993,2 50158  53.2178   7.5589 0001636  62.0567 298.0591 15.08820187 36028,6917.941,95.439,540.938,538.674,0.0
50158.0,STARLINK-3309,PAYLOAD,2022-08-10 12:23:50,15.08822422,0.0001702,53.2175,7.2617,65.8179,294.2991,-0.00012067,-2.207e-05,0.0,0 STARLINK-3309,1 50158U 21125C   22222.51655134 -.00002207  00000-0 -12067-3 0  9992,2 50158  53.2175   7.2617 0001702  65.8179 294.2991 15.08822422 39184,6917.934,95.439,540.977,538.622,0.0
50158.0,STARLINK-3309,PAYLOAD,2022-08-10 13:59:13,15.08822689,0.0001602,53.2179,6.9641,62.187,297.9284,-6.2227e-05,-1.278e-05,0.0,0 STARLINK-3309,1 50158U 21125C   22222.58278982 -.00001278  00000-0 -62227-4 0  9992,2 50158  53.2179   6.9641 0001602  62.1870 297.9284 15.08822689 39199,6917.933000000001,95.439,540.9069999999998,538.69,0.0
50158.0,STARLINK-3309,PAYLOAD,2022-08-11 13:50:00,15.0883041,0.0001585,53.218,2.5036,60.3046,299.8104,2.6102e-05,1.27e-06,0.0,0 STARLINK-3309,1 50158U 21125C   22223.57638951  .00000127  00000-0  26102-4 0  9990,2 50158  53.2180   2.5036 0001585  60.3046 299.8104 15.08830410 39346,6917.91,95.438,540.871,538.678,0.0
50158.0,STARLINK-3309,PAYLOAD,2022-08-11 18:36:09,15.08831821,0.0001585,53.2181,1.6115,59.3733,300.7416,5.8792e-05,6.48e-06,0.0,0 STARLINK-3309,1 50158U 21125C   22223.77510874  .00000648  00000-0  58792-4 0  9993,2 50158  53.2181   1.6115 0001585  59.3733 300.7416 15.08831821 36225,6917.905,95.438,540.867,538.674,0.0
50158.0,STARLINK-3309,PAYLOAD,2022-08-12 13:40:46,15.08838616,0.0001594,53.2182,358.0431,59.3157,300.7992,0.00026389,3.914e-05,0.0,0 STARLINK-3309,1 50158U 21125C   22224.56998272  .00003914  00000-0  26389-3 0  9998,2 50158  53.2182 358.0431 0001594  59.3157 300.7992 15.08838616 39496,6917.885,95.438,540.852,538.6469999999998,0.0
50158.0,STARLINK-3309,PAYLOAD,2022-08-12 15:16:09,15.08841033,0.0001569,53.2181,357.7459,60.3762,299.7386,0.00027006,4.013e-05,0.0,0 STARLINK-3309,1 50158U 21125C   22224.63622149  .00004013  00000-0  27006-3 0  9991,2 50158  53.2181 357.7459 0001569  60.3762 299.7386 15.08841033 36350,6917.877,95.437,540.828,538.6569999999998,0.0
